FENGYUN 1C DEB          
1 38804U 99025EUU 17337.23100243  .00001347  00000-0  11840-2 0  9995
2 38804  97.5229 140.9365 0399172  13.5910 347.5617 13.55634698426440
